SARSAT 7 (NOAA 15)      
1 25338U 98030A   14300.51710561  .00000302  00000-0  14675-3 0  3978
2 25338  98.7620 294.1817 0011694 122.1595  37.1677 14.25492492855699
GPS BIIR-07             
1 26690U 01004A   14300.50905603  .00000021  00000-0  00000+0 0  4205
2 26690  53.0232 198.0947 0156751 245.2971 231.9274  2.00554974100682
GPS BIIR-08             
1 27663U 03005A   14300.29520876 -.00000051  00000-0  00000+0 0  8512
2 27663  56.6785  22.3961 0076445  11.4001  46.3480  2.00562190 86047
INSAT 3A                
1 27714U 03013A   14299.71131788 -.00000260  00000-0  00000+0 0  5825
2 27714   0.0603  80.5555 0003227  66.6385 237.3828  1.00269901 42320
GPS BIIR-11             
1 28190U 04009A   14300.40954262  .00000027  00000-0  00000+0 0  3108
2 28190  55.4258  84.2686 0105580  28.1005  26.8096  2.00564458 77728
GPS BIIR-12             
1 28361U 04023A   14300.45769469  .00000001  00000-0  00000+0 0  1179
2 28361  54.4523 259.3161 0097879 205.2162  34.2455  2.00558576 75801
GPS BIIR-13             
1 28474U 04045A   14300.36117591  .00000062  00000-0  00000+0 0   223
2 28474  53.8571 137.3370 0140309 224.3534 309.6778  2.00559325 73168
SARSAT 10 (NOAA 18)     
1 28654U 05018A   14300.47358900  .00000197  00000-0  13289-3 0  3080
2 28654  99.1638 282.7279 0013429 251.5187 219.0356 14.12085844486234
GPS BIIR-14M            
1 28874U 05038A   14300.47073941  .00000023  00000-0  00000+0 0  2568
2 28874  55.5925  81.3837 0098634 240.8605 118.6411  2.00564113 66575
MSG-2                   
1 28912U 05049B   14300.13328213  .00000061  00000-0  00000+0 0  3182
2 28912   0.4519  31.4508 0001147 194.4762 227.0174  1.00264605 32473
GOES 13                 
1 29155U 06018A   14300.35126515 -.00000253  00000-0  00000+0 0  3830
2 29155   0.1019  98.8150 0001586  59.7836 288.7939  1.00267595 30895
SARSAT 11 (METOP-A)     
1 29499U 06044A   14300.19170814  .00000192  00000-0  10752-3 0  4991
2 29499  98.7099 358.1073 0002220 119.6034 336.2798 14.21507437416186
GPS BIIR-16M            
1 29601U 06052A   14300.14338088 -.00000051  00000-0  00000+0 0  4850
2 29601  56.6456  21.3352 0049572  26.0576  61.9552  2.00581881 58195
GPS BIIR-17M            
1 32260U 07047A   14300.12410840 -.00000001  00000-0  00000+0 0  4007
2 32260  53.5866 256.5230 0067128  15.1994 183.9707  2.00548933 51582
GPS BIIR-18M            
1 32384U 07062A   14300.04909979  .00000022  00000-0  00000+0 0  4291
2 32384  55.6371  81.9267 0013046 304.9545 336.2134  2.00570887 50303
SARSAT 12 (NOAA 19)     
1 33591U 09005A   14300.53492407  .00000289  00000-0  18273-3 0  4401
2 33591  98.9595 245.2590 0015042 105.5692  23.2327 14.11790844294660
GOES 14                 
1 35491U 09033A   14299.56914579 -.00000088  00000-0  00000+0 0  6823
2 35491   0.2645 264.0000 0013153 302.2532 288.0037  1.00273454 19546
GOES 15                 
1 36411U 10008A   14300.43785091  .00000084  00000-0  00000+0 0  3376
2 36411   0.2901 263.8110 0002852 336.2173 178.2023  1.00279119 17069
ELEKTRO-L 1             
1 37344U 11001A   14299.11419068 -.00000097  00000-0  00000+0 0  1278
2 37344   0.4932  80.5604 0000972 180.6185 250.2757  1.00270197 13831
GLONASS-K 1             
1 37372U 11009A   14300.21547274  .00000062  00000-0  00000+0 0  1026
2 37372  64.9868  97.3040 0010398 219.8775 325.1582  2.13193798 28502
GPS BIIF-2              
1 37753U 11036A   14300.21344300  .00000065  00000-0  00000+0 0  2220
2 37753  55.0848 139.2302 0035366  21.9121 165.2490  2.00563347 24021
LUCH 5A                 
1 37951U 11074B   14295.75340277 -.00000049  00000-0  00000+0 0  8086
2 37951   2.6915 245.6266 0006357 328.0983 255.6314  1.00271012 10512
MSG-3                   
1 38552U 12035B   14300.13307631  .00000003  00000-0  00000+0 0  1125
2 38552   0.4873 164.9931 0001635  96.3983 182.6570  1.00283239  8592
SARSAT 13 (METOP-B)     
1 38771U 12049A   14300.14950812  .00000214  00000-0  11820-3 0  6472
2 38771  98.7317 358.0786 0002249 131.8059 281.2300 14.21463277109311
GPS BIIF-3              
1 38833U 12053A   14299.94128866 -.00000031  00000-0  00000+0 0  7920
2 38833  54.7515 318.1781 0024049   6.2227 353.8455  2.00560142 15088
GSAT0103 (GALILEO-FM3)  
1 38857U 12055A   14299.91219524  .00000006  00000-0  00000+0 0  3137
2 38857  55.0475 218.8113 0002325 228.2596 131.7599  1.70473513 12693
GSAT0104 (GALILEO-FM4)  
1 38858U 12055B   14296.91399229 -.00000007  00000-0  00000+0 0  3093
2 38858  55.0493 218.8936 0001451 231.1263 128.8801  1.70473623 12594
GPS BIIF-4              
1 39166U 13023A   14299.79422849  .00000016  00000-0  10000-3 0  5519
2 39166  55.2944  78.7476 0014492  10.8131 349.2089  2.00562871 10602
GPS BIIF-5              
1 39533U 14008A   14299.29407981 -.00000035  00000-0  00000+0 0  2914
2 39533  54.8871 323.3363 0010696 196.1774 163.8354  2.00566809  4963
GPS BIIF-6              
1 39741U 14026A   14300.07452392  .00000066  00000-0  00000+0 0  1710
2 39741  55.0793 138.7460 0003929 142.8249 217.2711  2.00570021  3266
GPS BIIF-7              
1 40105U 14045A   14300.16375688  .00000001  00000-0  00000+0 0   751
2 40105  54.9635 258.7230 0004534 233.4195 126.5226  2.00556769  1717
